[
    {
        "Altitude(m)": 604221.2253647052,
        "Argument of Periapsis(deg)": 0.0,
        "Eccentricity": 0.0,
        "Inclination(deg)": 60.0,
        "Latitude(deg)": 14.117365823686653,
        "Longitude(deg)": 133.3341646710844,
        "Mean Anomaly(deg)": 16.363599999999984,
        "RAAN(deg)": 225.0,
        "Satellite Name": "Test1 991",
        "Satellite Number": 991,
        "Semi-Major Axis(m)": 6980739.136638005,
        "Time(s)": 0
    },
    {
        "Altitude(m)": 604235.3669647735,
        "Argument of Periapsis(deg)": 0.00010418945913296404,
        "Eccentricity": 0.0,
        "Inclination(deg)": 60.0,
        "Latitude(deg)": 14.651762359296349,
        "Longitude(deg)": 133.62261220090454,
        "Mean Anomaly(deg)": 16.983706145461838,
        "RAAN(deg)": 224.99957995086024,
        "Satellite Name": "Test1 991",
        "Satellite Number": 991,
        "Semi-Major Axis(m)": 6980739.136638005,
        "Time(s)": 10
    }
]